{"fetched_at":"2026-03-29T16:36:15Z","count":15609,"tles":[{"name":"STARLINK-4795","line1":"1 53856U 22114AQ  26087.71960742  .00007742  00000+0  50376-3 0  9999","line2":"2 53856  53.2151 198.7736 0001222  87.7769 272.3363 15.08856482195983","category":"Starlink"}]}